[{"OBJECT_NAME":"STARLINK-1350","OBJECT_ID":"2020-025E","EPOCH":"2026-03-09T06:29:12.850368","MEAN_MOTION":15.36101991,"ECCENTRICITY":0.00022158,"INCLINATION":53.0734,"RA_OF_ASC_NODE":35.1149,"ARG_OF_PERICENTER":70.5154,"MEAN_ANOMALY":289.6087,"EPHEMERIS_TYPE":0,"CLASSIFICATION_TYPE":"U","NORAD_CAT_ID":45535,"ELEMENT_SET_NO":999,"REV_AT_EPOCH":32609,"BSTAR":0.00042940249,"MEAN_MOTION_DOT":0.00014967,"MEAN_MOTION_DDOT":0},{"OBJECT_NAME":"SPACEMOBILE-004 DEB","OBJECT_ID":"2024-163J","EPOCH":"2026-03-09T22:05:47.775840","MEAN_MOTION":15.36798539,"ECCENTRICITY":0.00043505,"INCLINATION":52.9881,"RA_OF_ASC_NODE":19.7177,"ARG_OF_PERICENTER":191.7611,"MEAN_ANOMALY":168.329,"EPHEMERIS_TYPE":0,"CLASSIFICATION_TYPE":"U","NORAD_CAT_ID":62372,"ELEMENT_SET_NO":999,"REV_AT_EPOCH":7967,"BSTAR":0.00061559408,"MEAN_MOTION_DOT":0.00022146,"MEAN_MOTION_DDOT":0}]
